{
  "norad_id": 63631,
  "name": "TOMORROW-S7",
  "history": [
    {
      "epoch": "2026-03-28T21:44:24.156096Z",
      "apogee_km": 570.4313737418652,
      "perigee_km": 567.4899725870482,
      "latitude_deg": -3.6753166051976096e-06,
      "longitude_deg": -119.80512178926097,
      "height_km": 569.9888395211746,
      "semi_major_axis_km": 6947.097673164457,
      "eccentricity": 0.0002117,
      "inclination_deg": 45.3934,
      "raan_deg": 32.6151,
      "arg_perigee_deg": 227.9696,
      "mean_anomaly_deg": 132.1002,
      "mean_motion_rev_day": 14.99331463
    },
    {
      "epoch": "2026-03-29T04:08:11.326848Z",
      "apogee_km": 570.4372009098206,
      "perigee_km": 567.4680148114221,
      "latitude_deg": -4.017115833821257e-05,
      "longitude_deg": 142.6025053549533,
      "height_km": 569.9710449531192,
      "semi_major_axis_km": 6947.089607860621,
      "eccentricity": 0.0002137,
      "inclination_deg": 45.3934,
      "raan_deg": 31.232,
      "arg_perigee_deg": 228.9528,
      "mean_anomaly_deg": 131.1165,
      "mean_motion_rev_day": 14.99334074
    },
    {
      "epoch": "2026-03-30T04:07:23.016288Z",
      "apogee_km": 570.4675757013465,
      "perigee_km": 567.4066948373465,
      "latitude_deg": -4.6879628111261885e-05,
      "longitude_deg": 136.63129954029142,
      "height_km": 569.9179309048967,
      "semi_major_axis_km": 6947.074135269346,
      "eccentricity": 0.0002203,
      "inclination_deg": 45.3936,
      "raan_deg": 26.0446,
      "arg_perigee_deg": 232.2422,
      "mean_anomaly_deg": 127.8256,
      "mean_motion_rev_day": 14.99339083
    },
    {
      "epoch": "2026-03-30T05:43:19.786944Z",
      "apogee_km": 570.4688148555915,
      "perigee_km": 567.403905030651,
      "latitude_deg": -5.9363311964741014e-05,
      "longitude_deg": 112.23327014628073,
      "height_km": 569.9139772598933,
      "semi_major_axis_km": 6947.0733599431205,
      "eccentricity": 0.00022059,
      "inclination_deg": 45.3936,
      "raan_deg": 25.6988,
      "arg_perigee_deg": 232.4509,
      "mean_anomaly_deg": 127.6168,
      "mean_motion_rev_day": 14.99339334
    },
    {
      "epoch": "2026-03-30T12:07:06.847968Z",
      "apogee_km": 570.4806747331131,
      "perigee_km": 567.3840880270564,
      "latitude_deg": 8.481588674962326e-06,
      "longitude_deg": 14.641358354293594,
      "height_km": 569.8965800996893,
      "semi_major_axis_km": 6947.069381380084,
      "eccentricity": 0.00022287,
      "inclination_deg": 45.3932,
      "raan_deg": 24.3156,
      "arg_perigee_deg": 233.5195,
      "mean_anomaly_deg": 126.5478,
      "mean_motion_rev_day": 14.99340622
    },
    {
      "epoch": "2026-03-30T21:42:47.367360Z",
      "apogee_km": 570.4917860070182,
      "perigee_km": 567.3561605661162,
      "latitude_deg": 4.2237674527864955e-05,
      "longitude_deg": -131.7464746269916,
      "height_km": 569.875722846101,
      "semi_major_axis_km": 6947.060973286567,
      "eccentricity": 0.00022568,
      "inclination_deg": 45.3932,
      "raan_deg": 22.2406,
      "arg_perigee_deg": 234.6069,
      "mean_anomaly_deg": 125.4599,
      "mean_motion_rev_day": 14.99343344
    },
    {
      "epoch": "2026-03-31T20:06:01.766880Z",
      "apogee_km": 570.5085311844168,
      "perigee_km": 567.3059437909351,
      "latitude_deg": -1.1072605199559508e-06,
      "longitude_deg": -113.31752896602148,
      "height_km": 569.8167217670948,
      "semi_major_axis_km": 6947.044237487676,
      "eccentricity": 0.0002305,
      "inclination_deg": 45.3933,
      "raan_deg": 17.399,
      "arg_perigee_deg": 237.2744,
      "mean_anomaly_deg": 122.7912,
      "mean_motion_rev_day": 14.99348762
    }
  ]
}